start=new Date('2022-08-03T00:00:00.000Z').valueOf();
sats=[{"CLASSIFICATION_TYPE":"U","EPHEMERIS_TYPE":"0","MEAN_MOTION_DDOT":"0.0000000000000","FILE":"3527790","TLE_LINE1":"1 51994U 22025AQ  22214.58334491 -.00019015  00000-0 -11794-2 0  9999","MEAN_MOTION":"15.08849337","REV_AT_EPOCH":"2391","ELEMENT_SET_NO":"999","RA_OF_ASC_NODE":"162.8658","PERIOD":"95.437","RCS_SIZE":"LARGE","ARG_OF_PERICENTER":"61.4465","NORAD_CAT_ID":"51994","INCLINATION":"53.2164","ECCENTRICITY":"0.00021600","MEAN_MOTION_DOT":"-0.00019015","TLE_LINE2":"2 51994  53.2164 162.8658 0002160  61.4465 203.5132 15.08849337 23911","GP_ID":"209433519","DECAY_DATE":null,"OBJECT_NAME":"STARLINK-3647","LAUNCH_DATE":"2022-03-09","EPOCH":"2022-08-02T14:00:01.000224","MEAN_ELEMENT_THEORY":"SGP4","MEAN_ANOMALY":"203.5132","BSTAR":"-0.00117940000000","CENTER_NAME":"EARTH","OBJECT_ID":"2022-025AQ","COUNTRY_CODE":"US","SEMIMAJOR_AXIS":"6917.852","SITE":"AFETR","PERIAPSIS":"538.223","TIME_SYSTEM":"UTC","OBJECT_TYPE":"PAYLOAD","REF_FRAME":"TEME","APOAPSIS":"541.211"},{"OBJECT_NAME":"STARLINK-3636","LAUNCH_DATE":"2022-03-09","EPOCH":"2022-08-02T14:00:01.000224","MEAN_ELEMENT_THEORY":"SGP4","MEAN_ANOMALY":"134.8336","BSTAR":"-0.00115560000000","DECAY_DATE":null,"GP_ID":"209400159","PERIAPSIS":"538.547","TIME_SYSTEM":"UTC","OBJECT_TYPE":"PAYLOAD","REF_FRAME":"TEME","APOAPSIS":"540.955","CENTER_NAME":"EARTH","OBJECT_ID":"2022-025AR","COUNTRY_CODE":"US","SEMIMAJOR_AXIS":"6917.886","SITE":"AFETR","REV_AT_EPOCH":"2389","ELEMENT_SET_NO":"999","RA_OF_ASC_NODE":"162.8586","PERIOD":"95.438","CLASSIFICATION_TYPE":"U","EPHEMERIS_TYPE":"0","MEAN_MOTION_DDOT":"0.0000000000000","FILE":"3527473","TLE_LINE1":"1 51995U 22025AR  22214.58334491 -.00018632  00000-0 -11556-2 0  9990","MEAN_MOTION":"15.08838141","INCLINATION":"53.2160","ECCENTRICITY":"0.00017410","MEAN_MOTION_DOT":"-0.00018632","TLE_LINE2":"2 51995  53.2160 162.8586 0001741  70.1419 134.8336 15.08838141 23898","RCS_SIZE":"LARGE","ARG_OF_PERICENTER":"70.1419","NORAD_CAT_ID":"51995"},{"GP_ID":"209432913","DECAY_DATE":null,"OBJECT_NAME":"STARLINK-3538","LAUNCH_DATE":"2022-03-09","MEAN_ELEMENT_THEORY":"SGP4","EPOCH":"2022-08-02T14:00:01.000224","MEAN_ANOMALY":"212.6837","BSTAR":"-0.00119450000000","CENTER_NAME":"EARTH","OBJECT_ID":"2022-025AS","COUNTRY_CODE":"US","SEMIMAJOR_AXIS":"6917.843","SITE":"AFETR","PERIAPSIS":"538.441","TIME_SYSTEM":"UTC","OBJECT_TYPE":"PAYLOAD","REF_FRAME":"TEME","APOAPSIS":"540.975","CLASSIFICATION_TYPE":"U","EPHEMERIS_TYPE":"0","MEAN_MOTION_DDOT":"0.0000000000000","FILE":"3527750","TLE_LINE1":"1 51996U 22025AS  22214.58334491 -.00019255  00000-0 -11945-2 0  9995","MEAN_MOTION":"15.08852278","REV_AT_EPOCH":"2390","RA_OF_ASC_NODE":"162.8656","ELEMENT_SET_NO":"999","PERIOD":"95.437","RCS_SIZE":"LARGE","ARG_OF_PERICENTER":"72.2689","NORAD_CAT_ID":"51996","INCLINATION":"53.2161","ECCENTRICITY":"0.00018310","MEAN_MOTION_DOT":"-0.00019255","TLE_LINE2":"2 51996  53.2161 162.8656 0001831  72.2689 212.6837 15.08852278 23900"},{"MEAN_ANOMALY":"156.2973","BSTAR":"-0.00120910000000","OBJECT_NAME":"STARLINK-3589","MEAN_ELEMENT_THEORY":"SGP4","LAUNCH_DATE":"2022-03-09","EPOCH":"2022-08-02T14:00:01.000224","GP_ID":"209432096","DECAY_DATE":null,"APOAPSIS":"540.984","REF_FRAME":"TEME","TIME_SYSTEM":"UTC","PERIAPSIS":"538.467","OBJECT_TYPE":"PAYLOAD","SEMIMAJOR_AXIS":"6917.861","SITE":"AFETR","COUNTRY_CODE":"US","OBJECT_ID":"2022-025AT","CENTER_NAME":"EARTH","PERIOD":"95.437","RA_OF_ASC_NODE":"162.8622","ELEMENT_SET_NO":"999","REV_AT_EPOCH":"2389","MEAN_MOTION":"15.08846457","TLE_LINE1":"1 51997U 22025AT  22214.58334491 -.00019483  00000-0 -12091-2 0  9992","EPHEMERIS_TYPE":"0","CLASSIFICATION_TYPE":"U","FILE":"3527725","MEAN_MOTION_DDOT":"0.0000000000000","MEAN_MOTION_DOT":"-0.00019483","TLE_LINE2":"2 51997  53.2157 162.8622 0001819  68.6720 156.2973 15.08846457 23894","ECCENTRICITY":"0.00018190","INCLINATION":"53.2157","NORAD_CAT_ID":"51997","RCS_SIZE":"MEDIUM","ARG_OF_PERICENTER":"68.6720"},{"REV_AT_EPOCH":"130","ELEMENT_SET_NO":"999","RA_OF_ASC_NODE":"162.8467","PERIOD":"95.438","MEAN_MOTION_DDOT":"0.0000000000000","FILE":"3527697","CLASSIFICATION_TYPE":"U","EPHEMERIS_TYPE":"0","TLE_LINE1":"1 51998U 22025AU  22214.58334491 -.00015681  00000-0 -96942-3 0  9997","MEAN_MOTION":"15.08835184","INCLINATION":"53.2167","ECCENTRICITY":"0.00017390","TLE_LINE2":"2 51998  53.2167 162.8467 0001739  70.9289  14.0413 15.08835184  1307","MEAN_MOTION_DOT":"-0.00015681","ARG_OF_PERICENTER":"70.9289","RCS_SIZE":"LARGE","NORAD_CAT_ID":"51998","LAUNCH_DATE":"2022-03-09","MEAN_ELEMENT_THEORY":"SGP4","EPOCH":"2022-08-02T14:00:01.000224","OBJECT_NAME":"STARLINK-3618","BSTAR":"-0.00096942000000","MEAN_ANOMALY":"14.0413","DECAY_DATE":null,"GP_ID":"209428760","OBJECT_TYPE":"PAYLOAD","PERIAPSIS":"538.557","TIME_SYSTEM":"UTC","REF_FRAME":"TEME","APOAPSIS":"540.963","CENTER_NAME":"EARTH","OBJECT_ID":"2022-025AU","COUNTRY_CODE":"US","SITE":"AFETR","SEMIMAJOR_AXIS":"6917.895"},{"DECAY_DATE":null,"GP_ID":"209432114","BSTAR":"-0.00316800000000","MEAN_ANOMALY":"227.7733","LAUNCH_DATE":"2022-03-09","MEAN_ELEMENT_THEORY":"SGP4","EPOCH":"2022-08-02T14:00:01.000224","OBJECT_NAME":"STARLINK-3667","SITE":"AFETR","SEMIMAJOR_AXIS":"6917.840","COUNTRY_CODE":"US","OBJECT_ID":"2022-025AV","CENTER_NAME":"EARTH","APOAPSIS":"540.838","REF_FRAME":"TEME","OBJECT_TYPE":"PAYLOAD","TIME_SYSTEM":"UTC","PERIAPSIS":"538.572","MEAN_MOTION":"15.08853144","TLE_LINE1":"1 51999U 22025AV  22214.58334491 -.00050373  00000-0 -31680-2 0  9992","FILE":"3527726","MEAN_MOTION_DDOT":"0.0000000000000","EPHEMERIS_TYPE":"0","CLASSIFICATION_TYPE":"U","PERIOD":"95.437","RA_OF_ASC_NODE":"162.8635","ELEMENT_SET_NO":"999","REV_AT_EPOCH":"2389","NORAD_CAT_ID":"51999","ARG_OF_PERICENTER":"72.0091","RCS_SIZE":"LARGE","TLE_LINE2":"2 51999  53.2156 162.8635 0001638  72.0091 227.7733 15.08853144 23897","MEAN_MOTION_DOT":"-0.00050373","ECCENTRICITY":"0.00016380","INCLINATION":"53.2156"},{"DECAY_DATE":null,"GP_ID":"209429762","MEAN_ELEMENT_THEORY":"SGP4","LAUNCH_DATE":"2022-03-09","EPOCH":"2022-08-02T14:00:01.000224","OBJECT_NAME":"STARLINK-3653","BSTAR":"-0.00109080000000","MEAN_ANOMALY":"53.1446","COUNTRY_CODE":"US","CENTER_NAME":"EARTH","OBJECT_ID":"2022-025AW","SITE":"AFETR","SEMIMAJOR_AXIS":"6917.838","OBJECT_TYPE":"PAYLOAD","TIME_SYSTEM":"UTC","PERIAPSIS":"538.693","APOAPSIS":"540.713","REF_FRAME":"TEME","FILE":"3527697","MEAN_MOTION_DDOT":"0.0000000000000","EPHEMERIS_TYPE":"0","CLASSIFICATION_TYPE":"U","MEAN_MOTION":"15.08853851","TLE_LINE1":"1 52000U 22025AW  22214.58334491 -.00017613  00000-0 -10908-2 0  9996","REV_AT_EPOCH":"130","PERIOD":"95.437","RA_OF_ASC_NODE":"162.8468","ELEMENT_SET_NO":"999","ARG_OF_PERICENTER":"66.6259","RCS_SIZE":"LARGE","NORAD_CAT_ID":"52000","ECCENTRICITY":"0.00014600","INCLINATION":"53.2181","TLE_LINE2":"2 52000  53.2181 162.8468 0001460  66.6259  53.1446 15.08853851  1300","MEAN_MOTION_DOT":"-0.00017613"},{"NORAD_CAT_ID":"52001","ARG_OF_PERICENTER":"78.8498","RCS_SIZE":"LARGE","TLE_LINE2":"2 52001  53.2184 162.8479 0001545  78.8498  26.1304 15.08838430 23921","MEAN_MOTION_DOT":"-0.00015902","INCLINATION":"53.2184","ECCENTRICITY":"0.00015450","TLE_LINE1":"1 52001U 22025AX  22214.58334491 -.00015902  00000-0 -98327-3 0  9998","MEAN_MOTION":"15.08838430","MEAN_MOTION_DDOT":"0.0000000000000","FILE":"3527726","CLASSIFICATION_TYPE":"U","EPHEMERIS_TYPE":"0","ELEMENT_SET_NO":"999","RA_OF_ASC_NODE":"162.8479","PERIOD":"95.438","REV_AT_EPOCH":"2392","SITE":"AFETR","SEMIMAJOR_AXIS":"6917.885","CENTER_NAME":"EARTH","OBJECT_ID":"2022-025AX","COUNTRY_CODE":"US","REF_FRAME":"TEME","APOAPSIS":"540.819","OBJECT_TYPE":"PAYLOAD","PERIAPSIS":"538.681","TIME_SYSTEM":"UTC","DECAY_DATE":null,"GP_ID":"209431839","BSTAR":"-0.00098327000000","MEAN_ANOMALY":"26.1304","EPOCH":"2022-08-02T14:00:01.000224","LAUNCH_DATE":"2022-03-09","MEAN_ELEMENT_THEORY":"SGP4","OBJECT_NAME":"STARLINK-3659"},{"PERIAPSIS":"538.510","TIME_SYSTEM":"UTC","OBJECT_TYPE":"PAYLOAD","REF_FRAME":"TEME","APOAPSIS":"541.018","CENTER_NAME":"EARTH","OBJECT_ID":"2022-025AY","COUNTRY_CODE":"US","SEMIMAJOR_AXIS":"6917.899","SITE":"AFETR","OBJECT_NAME":"STARLINK-3668","EPOCH":"2022-08-02T14:00:01.000224","LAUNCH_DATE":"2022-03-09","MEAN_ELEMENT_THEORY":"SGP4","MEAN_ANOMALY":"55.2327","BSTAR":"-0.00098671000000","GP_ID":"209429260","DECAY_DATE":null,"INCLINATION":"53.2176","ECCENTRICITY":"0.00018130","MEAN_MOTION_DOT":"-0.00015955","TLE_LINE2":"2 52002  53.2176 162.8476 0001813  69.7535  55.2327 15.08833968  1306","RCS_SIZE":"LARGE","ARG_OF_PERICENTER":"69.7535","NORAD_CAT_ID":"52002","REV_AT_EPOCH":"130","ELEMENT_SET_NO":"999","RA_OF_ASC_NODE":"162.8476","PERIOD":"95.438","CLASSIFICATION_TYPE":"U","EPHEMERIS_TYPE":"0","MEAN_MOTION_DDOT":"0.0000000000000","FILE":"3527697","TLE_LINE1":"1 52002U 22025AY  22214.58334491 -.00015955  00000-0 -98671-3 0  9999","MEAN_MOTION":"15.08833968"},{"REV_AT_EPOCH":"2390","RA_OF_ASC_NODE":"162.8460","ELEMENT_SET_NO":"999","PERIOD":"95.437","MEAN_MOTION_DDOT":"0.0000000000000","FILE":"3527750","CLASSIFICATION_TYPE":"U","EPHEMERIS_TYPE":"0","TLE_LINE1":"1 52003U 22025AZ  22214.58334491 -.00045891  00000-0 -28833-2 0  9994","MEAN_MOTION":"15.08846039","INCLINATION":"53.2174","ECCENTRICITY":"0.00014540","TLE_LINE2":"2 52003  53.2174 162.8460 0001454  85.6882  59.2920 15.08846039 23907","MEAN_MOTION_DOT":"-0.00045891","ARG_OF_PERICENTER":"85.6882","RCS_SIZE":"LARGE","NORAD_CAT_ID":"52003","LAUNCH_DATE":"2022-03-09","EPOCH":"2022-08-02T14:00:01.000224","MEAN_ELEMENT_THEORY":"SGP4","OBJECT_NAME":"STARLINK-3654","BSTAR":"-0.00288330000000","MEAN_ANOMALY":"59.2920","GP_ID":"209432908","DECAY_DATE":null,"OBJECT_TYPE":"PAYLOAD","PERIAPSIS":"538.721","TIME_SYSTEM":"UTC","REF_FRAME":"TEME","APOAPSIS":"540.733","CENTER_NAME":"EARTH","OBJECT_ID":"2022-025AZ","COUNTRY_CODE":"US","SITE":"AFETR","SEMIMAJOR_AXIS":"6917.862"}];
